KUIPER-00270            
1 67791U 26030AD  26057.18623358  .00017648  00000+0  53578-3 0  9993
2 67791  51.8820 274.7134 0009932  23.2807 336.8626 15.34122766  3328
KUIPER-00274            
1 67792U 26030AE  26057.13472083 -.00027240  00000+0 -85282-3 0  9994
2 67792  51.8840 275.1183 0016976  35.1922 325.0180 15.32111204  3313
KUIPER-00275            
1 67793U 26030AF  26057.11881901 -.00005400  00000+0 -14862-3 0  9996
2 67793  51.8855 275.0182 0008549  20.3199 339.8126 15.34325991  3312
KUIPER-00276            
1 67794U 26030AG  26057.13787906  .00024958  00000+0  81087-3 0  9999
2 67794  51.8830 275.1362 0018233  31.9806 328.2281 15.31619013  3313
KUIPER-00279            
1 67795U 26030AH  26057.11514833  .00018540  00000+0  55029-3 0  9992
2 67795  51.8805 274.9878 0006154  18.0113 342.1090 15.34828161  3313
CREW DRAGON 12          
1 67796U 26031A   26056.57355615  .00009568  00000+0  18600-3 0  9998
2 67796  51.6319 132.2502 0008347 132.4308 227.7387 15.48286925554426
STARLINK-36800          
1 67797U 26032A   26056.94835023  .00313982  00000+0  13804-2 0  9995
2 67797  97.2875 242.8327 0005281   4.5225 355.6092 15.83750131  2936
STARLINK-36798          
1 67798U 26032B   26056.44196668  .00522070  00000+0  19474-2 0  9995
2 67798  97.2870 242.2964 0003429 100.8346 259.3311 15.86710507  2850
STARLINK-36804          
1 67799U 26032C   26056.44100745  .00537440  00000+0  20134-2 0  9999
2 67799  97.2858 242.2982 0006337 166.2980 193.8464 15.86574376  2851
STARLINK-36354          
1 67800U 26032D   26056.94560053  .00320009  00000+0  13665-2 0  9991
2 67800  97.2879 242.8372 0005573   8.3004 351.8357 15.84351598  2933
STARLINK-36773          
1 67801U 26032E   26056.94475942  .00406108  00000+0  16990-2 0  9993
2 67801  97.2869 242.8370 0005658   6.3471 353.7870 15.84576777  2930
STARLINK-36739          
1 67802U 26032F   26056.43792192  .00391724  00000+0  14483-2 0  9999
2 67802  97.2856 242.3014 0006463 170.6405 189.4988 15.87183473  2859
