CCSDS_OMM_VERS = 2.0
CREATION_DATE  = 
ORIGINATOR     = 

OBJECT_NAME    = KUIPER-00270
OBJECT_ID      = 2026-030AD
CENTER_NAME    = EARTH
REF_FRAME      = TEME
TIME_SYSTEM    = UTC
MEAN_ELEMENT_THEORY = SGP/SGP4

EPOCH          = 2026-02-26T04:28:10.581312
MEAN_MOTION    = 15.34122766
ECCENTRICITY   = .0009932
INCLINATION    = 51.8820
RA_OF_ASC_NODE = 274.7134
ARG_OF_PERICENTER = 23.2807
MEAN_ANOMALY   = 336.8626

EPHEMERIS_TYPE = 0
CLASSIFICATION_TYPE = U
NORAD_CAT_ID   = 67791
ELEMENT_SET_NO = 999
REV_AT_EPOCH   = 332
BSTAR          = .53578E-3
MEAN_MOTION_DOT = .17648E-3
MEAN_MOTION_DDOT = 0

CCSDS_OMM_VERS = 2.0
CREATION_DATE  = 
ORIGINATOR     = 

OBJECT_NAME    = KUIPER-00274
OBJECT_ID      = 2026-030AE
CENTER_NAME    = EARTH
REF_FRAME      = TEME
TIME_SYSTEM    = UTC
MEAN_ELEMENT_THEORY = SGP/SGP4

EPOCH          = 2026-02-26T03:13:59.879712
MEAN_MOTION    = 15.32111204
ECCENTRICITY   = .0016976
INCLINATION    = 51.8840
RA_OF_ASC_NODE = 275.1183
ARG_OF_PERICENTER = 35.1922
MEAN_ANOMALY   = 325.0180

EPHEMERIS_TYPE = 0
CLASSIFICATION_TYPE = U
NORAD_CAT_ID   = 67792
ELEMENT_SET_NO = 999
REV_AT_EPOCH   = 331
BSTAR          = -.85282E-3
MEAN_MOTION_DOT = -.2724E-3
MEAN_MOTION_DDOT = 0

CCSDS_OMM_VERS = 2.0
CREATION_DATE  = 
ORIGINATOR     = 

OBJECT_NAME    = KUIPER-00275
OBJECT_ID      = 2026-030AF
CENTER_NAME    = EARTH
REF_FRAME      = TEME
TIME_SYSTEM    = UTC
MEAN_ELEMENT_THEORY = SGP/SGP4

EPOCH          = 2026-02-26T02:51:05.962464
MEAN_MOTION    = 15.34325991
ECCENTRICITY   = .0008549
INCLINATION    = 51.8855
RA_OF_ASC_NODE = 275.0182
ARG_OF_PERICENTER = 20.3199
MEAN_ANOMALY   = 339.8126

EPHEMERIS_TYPE = 0
CLASSIFICATION_TYPE = U
NORAD_CAT_ID   = 67793
ELEMENT_SET_NO = 999
REV_AT_EPOCH   = 331
BSTAR          = -.14862E-3
MEAN_MOTION_DOT = -.54E-4
MEAN_MOTION_DDOT = 0

CCSDS_OMM_VERS = 2.0
CREATION_DATE  = 
ORIGINATOR     = 

OBJECT_NAME    = KUIPER-00276
OBJECT_ID      = 2026-030AG
CENTER_NAME    = EARTH
REF_FRAME      = TEME
TIME_SYSTEM    = UTC
MEAN_ELEMENT_THEORY = SGP/SGP4

EPOCH          = 2026-02-26T03:18:32.750784
MEAN_MOTION    = 15.31619013
ECCENTRICITY   = .0018233
INCLINATION    = 51.8830
RA_OF_ASC_NODE = 275.1362
ARG_OF_PERICENTER = 31.9806
MEAN_ANOMALY   = 328.2281

EPHEMERIS_TYPE = 0
CLASSIFICATION_TYPE = U
NORAD_CAT_ID   = 67794
ELEMENT_SET_NO = 999
REV_AT_EPOCH   = 331
BSTAR          = .81087E-3
MEAN_MOTION_DOT = .24958E-3
MEAN_MOTION_DDOT = 0

CCSDS_OMM_VERS = 2.0
CREATION_DATE  = 
ORIGINATOR     = 

OBJECT_NAME    = KUIPER-00279
OBJECT_ID      = 2026-030AH
CENTER_NAME    = EARTH
REF_FRAME      = TEME
TIME_SYSTEM    = UTC
MEAN_ELEMENT_THEORY = SGP/SGP4

EPOCH          = 2026-02-26T02:45:48.815712
MEAN_MOTION    = 15.34828161
ECCENTRICITY   = .0006154
INCLINATION    = 51.8805
RA_OF_ASC_NODE = 274.9878
ARG_OF_PERICENTER = 18.0113
MEAN_ANOMALY   = 342.1090

EPHEMERIS_TYPE = 0
CLASSIFICATION_TYPE = U
NORAD_CAT_ID   = 67795
ELEMENT_SET_NO = 999
REV_AT_EPOCH   = 331
BSTAR          = .55029E-3
MEAN_MOTION_DOT = .1854E-3
MEAN_MOTION_DDOT = 0

CCSDS_OMM_VERS = 2.0
CREATION_DATE  = 
ORIGINATOR     = 

OBJECT_NAME    = CREW DRAGON 12
OBJECT_ID      = 2026-031A
CENTER_NAME    = EARTH
REF_FRAME      = TEME
TIME_SYSTEM    = UTC
MEAN_ELEMENT_THEORY = SGP/SGP4

EPOCH          = 2026-02-25T13:45:55.251360
MEAN_MOTION    = 15.48286925
ECCENTRICITY   = .00083472
INCLINATION    = 51.6319
RA_OF_ASC_NODE = 132.2502
ARG_OF_PERICENTER = 132.4308
MEAN_ANOMALY   = 227.7387

EPHEMERIS_TYPE = 0
CLASSIFICATION_TYPE = U
NORAD_CAT_ID   = 67796
ELEMENT_SET_NO = 999
REV_AT_EPOCH   = 55442
BSTAR          = .18599678E-3
MEAN_MOTION_DOT = .9568E-4
MEAN_MOTION_DDOT = 0

CCSDS_OMM_VERS = 2.0
CREATION_DATE  = 
ORIGINATOR     = 

OBJECT_NAME    = STARLINK-36800
OBJECT_ID      = 2026-032A
CENTER_NAME    = EARTH
REF_FRAME      = TEME
TIME_SYSTEM    = UTC
MEAN_ELEMENT_THEORY = SGP/SGP4

EPOCH          = 2026-02-25T22:45:37.459872
MEAN_MOTION    = 15.83750131
ECCENTRICITY   = .0005281
INCLINATION    = 97.2875
RA_OF_ASC_NODE = 242.8327
ARG_OF_PERICENTER = 4.5225
MEAN_ANOMALY   = 355.6092

EPHEMERIS_TYPE = 0
CLASSIFICATION_TYPE = U
NORAD_CAT_ID   = 67797
ELEMENT_SET_NO = 999
REV_AT_EPOCH   = 293
BSTAR          = .13804E-2
MEAN_MOTION_DOT = .313982E-2
MEAN_MOTION_DDOT = 0

CCSDS_OMM_VERS = 2.0
CREATION_DATE  = 
ORIGINATOR     = 

OBJECT_NAME    = STARLINK-36798
OBJECT_ID      = 2026-032B
CENTER_NAME    = EARTH
REF_FRAME      = TEME
TIME_SYSTEM    = UTC
MEAN_ELEMENT_THEORY = SGP/SGP4

EPOCH          = 2026-02-25T10:36:25.921152
MEAN_MOTION    = 15.86710507
ECCENTRICITY   = .0003429
INCLINATION    = 97.2870
RA_OF_ASC_NODE = 242.2964
ARG_OF_PERICENTER = 100.8346
MEAN_ANOMALY   = 259.3311

EPHEMERIS_TYPE = 0
CLASSIFICATION_TYPE = U
NORAD_CAT_ID   = 67798
ELEMENT_SET_NO = 999
REV_AT_EPOCH   = 285
BSTAR          = .19474E-2
MEAN_MOTION_DOT = .52207E-2
MEAN_MOTION_DDOT = 0

CCSDS_OMM_VERS = 2.0
CREATION_DATE  = 
ORIGINATOR     = 

OBJECT_NAME    = STARLINK-36804
OBJECT_ID      = 2026-032C
CENTER_NAME    = EARTH
REF_FRAME      = TEME
TIME_SYSTEM    = UTC
MEAN_ELEMENT_THEORY = SGP/SGP4

EPOCH          = 2026-02-25T10:35:03.043680
MEAN_MOTION    = 15.86574376
ECCENTRICITY   = .0006337
INCLINATION    = 97.2858
RA_OF_ASC_NODE = 242.2982
ARG_OF_PERICENTER = 166.2980
MEAN_ANOMALY   = 193.8464

EPHEMERIS_TYPE = 0
CLASSIFICATION_TYPE = U
NORAD_CAT_ID   = 67799
ELEMENT_SET_NO = 999
REV_AT_EPOCH   = 285
BSTAR          = .20134E-2
MEAN_MOTION_DOT = .53744E-2
MEAN_MOTION_DDOT = 0

CCSDS_OMM_VERS = 2.0
CREATION_DATE  = 
ORIGINATOR     = 

OBJECT_NAME    = STARLINK-36354
OBJECT_ID      = 2026-032D
CENTER_NAME    = EARTH
REF_FRAME      = TEME
TIME_SYSTEM    = UTC
MEAN_ELEMENT_THEORY = SGP/SGP4

EPOCH          = 2026-02-25T22:41:39.885792
MEAN_MOTION    = 15.84351598
ECCENTRICITY   = .0005573
INCLINATION    = 97.2879
RA_OF_ASC_NODE = 242.8372
ARG_OF_PERICENTER = 8.3004
MEAN_ANOMALY   = 351.8357

EPHEMERIS_TYPE = 0
CLASSIFICATION_TYPE = U
NORAD_CAT_ID   = 67800
ELEMENT_SET_NO = 999
REV_AT_EPOCH   = 293
BSTAR          = .13665E-2
MEAN_MOTION_DOT = .320009E-2
MEAN_MOTION_DDOT = 0

CCSDS_OMM_VERS = 2.0
CREATION_DATE  = 
ORIGINATOR     = 

OBJECT_NAME    = STARLINK-36773
OBJECT_ID      = 2026-032E
CENTER_NAME    = EARTH
REF_FRAME      = TEME
TIME_SYSTEM    = UTC
MEAN_ELEMENT_THEORY = SGP/SGP4

EPOCH          = 2026-02-25T22:40:27.213888
MEAN_MOTION    = 15.84576777
ECCENTRICITY   = .0005658
INCLINATION    = 97.2869
RA_OF_ASC_NODE = 242.8370
ARG_OF_PERICENTER = 6.3471
MEAN_ANOMALY   = 353.7870

EPHEMERIS_TYPE = 0
CLASSIFICATION_TYPE = U
NORAD_CAT_ID   = 67801
ELEMENT_SET_NO = 999
REV_AT_EPOCH   = 293
BSTAR          = .1699E-2
MEAN_MOTION_DOT = .406108E-2
MEAN_MOTION_DDOT = 0

CCSDS_OMM_VERS = 2.0
CREATION_DATE  = 
ORIGINATOR     = 

OBJECT_NAME    = STARLINK-36739
OBJECT_ID      = 2026-032F
CENTER_NAME    = EARTH
REF_FRAME      = TEME
TIME_SYSTEM    = UTC
MEAN_ELEMENT_THEORY = SGP/SGP4

EPOCH          = 2026-02-25T10:30:36.453888
MEAN_MOTION    = 15.87183473
ECCENTRICITY   = .0006463
INCLINATION    = 97.2856
RA_OF_ASC_NODE = 242.3014
ARG_OF_PERICENTER = 170.6405
MEAN_ANOMALY   = 189.4988

EPHEMERIS_TYPE = 0
CLASSIFICATION_TYPE = U
NORAD_CAT_ID   = 67802
ELEMENT_SET_NO = 999
REV_AT_EPOCH   = 285
BSTAR          = .14483E-2
MEAN_MOTION_DOT = .391724E-2
MEAN_MOTION_DDOT = 0

